STARLINK-1007           
1 44713U 19074A   24093.79505587 -.00000635  00000+0 -23761-4 0  9992
2 44713  53.0547 115.5006 0001480  75.3802 284.7351 15.06391369242350
STARLINK-1008           
1 44714U 19074B   24093.77385307 -.00001019  00000+0 -49529-4 0  9994
2 44714  53.0535 115.5956 0001502  90.3193 269.7968 15.06407265242357
STARLINK-1009           
1 44715U 19074C   24093.76279965 -.00000578  00000+0 -19943-4 0  9992
2 44715  53.0536 115.6445 0001339  89.1941 270.9202 15.06399536242343
STARLINK-1010           
1 44716U 19074D   24093.78124765 -.00001639  00000+0 -91160-4 0  9992
2 44716  53.0559 115.5631 0001701  86.3093 273.8091 15.06396408242337
STARLINK-1011           
1 44717U 19074E   24093.84575421  .00001916  00000+0  14751-3 0  9995
2 44717  53.0532 135.2760 0001404  91.6936 268.4214 15.06393393242085
STARLINK-1012           
1 44718U 19074F   24093.48635116  .00001985  00000+0  15210-3 0  9991
2 44718  53.0535 116.8858 0001357  86.5337 273.5807 15.06407228242478
STARLINK-1013           
1 44719U 19074G   24093.75912879  .00000423  00000+0  47283-4 0  9998
2 44719  53.0546 115.6584 0001336  85.8257 274.2884 15.06391108243477
STARLINK-1014           
1 44720U 19074H   24093.34625280  .00005841  00000+0  39624-3 0  9990
2 44720  53.0539 117.1685 0002743  77.8174 282.3123 15.07747784242293
STARLINK-1015           
1 44721U 19074J   24093.76649857  .00002108  00000+0  16037-3 0  9999
2 44721  53.0527 115.6289 0001396  78.3184 281.7962 15.06404618242349
STARLINK-1017           
1 44723U 19074L   24093.78497465 -.00006048  00000+0 -38801-3 0  9991
2 44723  53.0534 115.5478 0001306  91.0726 269.0412 15.06350097242354
STARLINK-1019           
1 44724U 19074M   24093.74806272  .00001165  00000+0  97131-4 0  9993
2 44724  53.0537 115.7099 0001570  84.3571 275.7597 15.06395270242344
STARLINK-1020           
1 44725U 19074N   24093.81993424  .00000377  00000+0  44234-4 0  9998
2 44725  53.0542 135.3891 0001455  91.6995 268.4161 15.06399030242076
STARLINK-1021           
1 44726U 19074P   24093.47898683  .00002874  00000+0  21168-3 0  9996
2 44726  53.0532 116.9194 0001334  84.4546 275.6595 15.06408958242470
STARLINK-1027           
1 44732U 19074V   24093.80888176 -.00000579  00000+0 -19971-4 0  9998
2 44732  53.0529 135.4467 0001487  94.1023 266.0136 15.06392896242073
STARLINK-1028           
1 44733U 19074W   24093.34261787  .00001694  00000+0  13258-3 0  9999
2 44733  53.0542 117.5329 0001340  83.3003 276.8138 15.06410664242281
STARLINK-1029           
1 44734U 19074X   24093.55641121  .00005406  00000+0  38175-3 0  9997
2 44734  53.0550  36.5696 0001257  83.6650 276.4482 15.06377723243418
STARLINK-1030           
1 44735U 19074Y   24093.81625266  .00000633  00000+0  61422-4 0  9998
2 44735  53.0533 135.4058 0001502  91.0724 269.0437 15.06397509242072
STARLINK-1031           
1 44736U 19074Z   24093.83101544  .00000466  00000+0  50186-4 0  9998
2 44736  53.0552 135.3381 0001582  88.8761 271.2410 15.06389044242087
STARLINK-1032           
1 44737U 19074AA  24093.84206414  .00001409  00000+0  11346-3 0  9994
2 44737  53.0533 135.2925 0001311  95.7924 264.3214 15.06394888242085
STARLINK-1035           
1 44740U 19074AD  24093.83841015  .00001322  00000+0  10773-3 0  9996
2 44740  53.0531 135.3156 0000857  90.9521 269.1566 15.06368491242082
STARLINK-1036           
1 44741U 19074AE  24093.84944042  .00003522  00000+0  25528-3 0  9990
2 44741  53.0529 135.2581 0001522 100.4461 259.6699 15.06395644242082
STARLINK-1038           
1 44743U 19074AG  24093.89920863  .00011233  00000+0  77181-3 0  9992
2 44743  53.0529 155.0320 0001389  92.1027 268.0121 15.06400380241909
STARLINK-1039           
1 44744U 19074AH  24093.77756635  .00007735  00000+0  53763-3 0  9996
2 44744  53.0532 155.5816 0001400  95.4368 264.6781 15.06396487241790
STARLINK-1041           
1 44746U 19074AK  24093.89550296  .00005565  00000+0  39223-3 0  9990
2 44746  53.0526 155.0505 0001387  87.0758 273.0389 15.06399501241810
STARLINK-1042           
1 44747U 19074AL  24093.85697834  .00023090  00000+0  13580-2 0  9997
2 44747  53.0544 153.8186 0002727   2.3396 357.7607 15.11577519241837
STARLINK-1043           
1 44748U 19074AM  24093.88813732  .00003520  00000+0  25502-3 0  9992
2 44748  53.0523 155.0836 0001424  90.2827 269.8325 15.06411741241815
STARLINK-1046           
1 44751U 19074AQ  24093.90287002 -.00002370  00000+0 -14023-3 0  9994
2 44751  53.0533 155.0183 0001232  85.1368 274.9762 15.06402453241817
STARLINK-1047           
1 44752U 19074AR  24093.39236187  .00000694  00000+0  65493-4 0  9999
2 44752  53.0534 137.3064 0001547  94.4590 265.6575 15.06403746242185
STARLINK-1048           
1 44753U 19074AS  24093.79596920  .00000458  00000+0  49605-4 0  9993
2 44753  53.0533 115.4956 0001210  87.3424 272.7703 15.06401100242359
STARLINK-1052           
1 44757U 19074AW  24093.37860506  .00008441  00000+0  40548-3 0  9991
2 44757  53.0575 128.0821 0005343 356.1948   3.9005 15.19641251242142
STARLINK-1053           
1 44758U 19074AX  24093.88448277  .00004426  00000+0  31580-3 0  9990
2 44758  53.0539 155.1883 0001273  93.3294 266.7841 15.06401445241819
STARLINK-1054           
1 44759U 19074AY  24093.86603309  .00006845  00000+0  47808-3 0  9995
2 44759  53.0535 155.1804 0001648  95.6494 264.4683 15.06393718239451
STARLINK-1055           
1 44760U 19074AZ  24093.78278136  .00008544  00000+0  33316-3 0  9991
2 44760  53.0168 117.3335 0005809  34.8869 325.2508 15.26749261242342
STARLINK-1056           
1 44761U 19074BA  24093.86233063  .00001281  00000+0  10486-3 0  9995
2 44761  53.0524 155.2000 0001058  72.1456 287.9648 15.06399105241814
STARLINK-1057           
1 44762U 19074BB  24093.39975713  .00001544  00000+0  12252-3 0  9994
2 44762  53.0530 137.2774 0001449  81.1471 278.9682 15.06393794242010
STARLINK-1058           
1 44763U 19074BC  24093.45322609  .00002233  00000+0  16870-3 0  9998
2 44763  53.0530 157.3824 0001750  87.9590 272.1599 15.06406932241742
STARLINK-1059           
1 44764U 19074BD  24093.97056155  .00014852  00000+0  48910-3 0  9996
2 44764  53.0787  78.0402 0005095 354.1487   5.9453 15.31713172242925
STARLINK-1060           
1 44765U 19074BE  24093.41449729 -.00000671  00000+0 -26152-4 0  9990
2 44765  53.0531 137.2105 0001660  93.5067 266.6111 15.06390937242012
STARLINK-1061           
1 44766U 19074BF  24093.87709451  .00011481  00000+0  78847-3 0  9998
2 44766  53.0531 155.1302 0001430  84.6247 275.4905 15.06397914241815
STARLINK-1062           
1 44767U 19074BG  24093.86874862  .00001747  00000+0  13621-3 0  9990
2 44767  53.0533 155.1625 0001674  89.8137 270.3044 15.06390920241819
STARLINK-1063           
1 44768U 19074BH  24093.89181156  .00004043  00000+0  29014-3 0  9996
2 44768  53.0549 155.0691 0001378  85.7700 274.3447 15.06400978241828
STARLINK-1067           
1 44771U 19074BL  24093.88077732  .00008246  00000+0  57190-3 0  9998
2 44771  53.0524 155.1165 0001505  81.1346 278.9813 15.06393313241810
STARLINK-1068           
1 44772U 19074BM  24093.80521002  .00000329  00000+0  41019-4 0  9993
2 44772  53.0529 135.4587 0001656  92.6743 267.4436 15.06395703242078
STARLINK-1073           
1 44914U 20001A   24093.82178321  .00001543  00000+0  12248-3 0  9997
2 44914  53.0541 275.3787 0001321  95.5310 264.5830 15.06400232233459
STARLINK-1084           
1 44915U 20001B   24093.91762108  .00005907  00000+0  41491-3 0  9990
2 44915  53.0541 274.9495 0001192  92.1780 267.9345 15.06416081233470
STARLINK-1098           
1 44917U 20001D   24093.92128265  .00002534  00000+0  18887-3 0  9999
2 44917  53.0559 274.9324 0001391  96.4301 263.6846 15.06416878233472
STARLINK-1099           
1 44918U 20001E   24094.00002315  .00102576  00000+0  12961-2 0  9990
2 44918  53.0504 227.9378 0002824 263.0411  95.0901 15.58756546  5973
STARLINK-1102           
1 44920U 20001G   24093.74834439  .00067189  00000+0  22659-2 0  9998
2 44920  53.0509 228.1714 0002317  77.5688 282.5570 15.30115361234129
STARLINK-1103           
1 44921U 20001H   24093.76554833  .00003050  00000+0  22356-3 0  9990
2 44921  53.0547 275.5923 0001222  92.7726 267.3403 15.06403842233421
STARLINK-1104           
1 44922U 20001J   24093.93604536  .00001606  00000+0  12668-3 0  9996
2 44922  53.0544 274.8643 0001298  89.3973 270.7164 15.06404222233479
STARLINK-1106           
1 44923U 20001K   24093.80538579  .00038656  00000+0  15366-2 0  9998
2 44923  53.0200 241.4545 0002992 332.9722  27.1119 15.24949640233934
STARLINK-1111           
1 44924U 20001L   24094.00002315  .00962979  00000+0  22056-1 0  9993
2 44924  53.0542 272.0857 0001124  70.9097  49.8329 15.39916499  5775
STARLINK-1112           
1 44925U 20001M   24093.76649071  .00000403  00000+0  45967-4 0  9996
2 44925  53.0543 275.6278 0001231  82.9694 277.1435 15.06403647233449
STARLINK-1113           
1 44926U 20001N   24094.00002315  .01110846  00000+0  22170-1 0  9991
2 44926  53.0555 271.8384 0001217  64.9593 156.9137 15.43700653  5753
STARLINK-1114           
1 44927U 20001P   24093.77754940  .00000356  00000+0  42818-4 0  9990
2 44927  53.0540 275.5770 0001283  91.5020 268.6116 15.06401099233451
STARLINK-1119           
1 44928U 20001Q   24094.00002315  .00116796  00000+0  61362-3 0  9990
2 44928  53.0446 218.1811 0006321 331.8296 268.1585 15.79888436  6096
STARLINK-1123           
1 44930U 20001S   24093.92499906 -.00000068  00000+0  14341-4 0  9990
2 44930  53.0549 274.9161 0001732  87.2240 272.8947 15.06392100233479
STARLINK-1128           
1 44931U 20001T   24094.00002315  .00089840  00000+0  27735-2 0  9998
2 44931  53.0487 237.0422 0008454 271.3891 180.6203 15.32786091  5885
STARLINK-1130 (DARKSAT) 
1 44932U 20001U   24093.78123423  .00001269  00000+0  10410-3 0  9999
2 44932  53.0541 275.5632 0001249  91.1641 268.9491 15.06396818234689
STARLINK-1144           
